[{"OBJECT_NAME":"STARLINK-6342","OBJECT_ID":"2023-078D","EPOCH":"2026-03-09T22:24:55.514304","MEAN_MOTION":14.98338533,"ECCENTRICITY":0.00023541,"INCLINATION":70.002,"RA_OF_ASC_NODE":3.8447,"ARG_OF_PERICENTER":253.487,"MEAN_ANOMALY":106.603,"EPHEMERIS_TYPE":0,"CLASSIFICATION_TYPE":"U","NORAD_CAT_ID":56770,"ELEMENT_SET_NO":999,"REV_AT_EPOCH":15222,"BSTAR":2.8956148e-5,"MEAN_MOTION_DOT":2.53e-6,"MEAN_MOTION_DDOT":0},{"OBJECT_NAME":"CZ-2C R\/B","OBJECT_ID":"2023-187D","EPOCH":"2026-03-09T21:18:27.461376","MEAN_MOTION":14.91546811,"ECCENTRICITY":0.00358476,"INCLINATION":98.1132,"RA_OF_ASC_NODE":178.247,"ARG_OF_PERICENTER":167.8673,"MEAN_ANOMALY":192.3416,"EPHEMERIS_TYPE":0,"CLASSIFICATION_TYPE":"U","NORAD_CAT_ID":58499,"ELEMENT_SET_NO":999,"REV_AT_EPOCH":12301,"BSTAR":0.00023879444,"MEAN_MOTION_DOT":2.36e-5,"MEAN_MOTION_DDOT":0}]
